GLOBALSTAR M094         
1 39074U 13005C   25204.91815277 -.00000095  00000+0  50493-4 0  9994
2 39074  51.9964  70.2818 0000890  48.3224 311.7719 12.62262856577014
GLOBALSTAR M096         
1 39075U 13005D   25204.93126020 -.00000107  00000+0 -16877-4 0  9991
2 39075  52.0070 118.7847 0000669  23.8198 336.2699 12.62265751575932
GLOBALSTAR M078         
1 39076U 13005E   25204.74659057 -.00000099  00000+0  23965-4 0  9997
2 39076  51.9846 203.8080 0000706 258.7087 101.3700 12.62259780574539
GLOBALSTAR M095         
1 39077U 13005F   25204.69348655 -.00000105  00000+0 -58415-5 0  9999
2 39077  51.9772 201.1458 0000436 303.5943  56.4882 12.62268422574385
GLOBALSTAR M087         
1 52888U 22064A   25204.55039923 -.00000098  00000+0  30023-4 0  9993
2 52888  52.0017 342.9843 0000569  95.6918 264.4014 12.62259122149635
